STARLINK-3586           
1 51795U 22017AD  22065.25001157 -.00872823  00000+0 -64471-2 0  9990
2 51795  53.2176 100.9780 0001423  49.6300 107.7126 15.74728577  2582
STARLINK-3630           
1 51796U 22017AE  22064.91668981 -.00871662  00000+0 -62386-2 0  9990
2 51796  53.2175 102.6269 0001128  51.7112  16.7466 15.75445195  1791
STARLINK-3627           
1 51797U 22017AF  22064.91668981 -.00871746  00000+0 -62759-2 0  9998
2 51797  53.2175 102.6335 0001167  48.9989  16.1782 15.75312099  1790
STARLINK-3634           
1 51798U 22017AG  22064.91668981 -.00871686  00000+0 -62326-2 0  9992
2 51798  53.2175 102.6257 0001180  47.4351  21.5669 15.75467221  1798
STARLINK-3637           
1 51799U 22017AH  22064.91668981 -.00871664  00000+0 -62503-2 0  9996
2 51799  53.2175 102.6290 0001257  43.3043  24.0603 15.75401631  1793
STARLINK-3600           
1 51800U 22017AJ  22064.91668981 -.00871791  00000+0 -62216-2 0  9991
2 51800  53.2175 102.6235 0001090  55.2126  14.8764 15.75511054  1790
STARLINK-3592           
1 51801U 22017AK  22065.16667824 -.00875369  00000+0 -64047-2 0  9994
2 51801  53.2178 101.3874 0001235  47.4557 358.8722 15.74954099  2583
STARLINK-3557           
1 51802U 22017AL  22065.16667824 -.00875370  00000+0 -63682-2 0  9991
2 51802  53.2178 101.3806 0001183  51.1672 358.5425 15.75084620  2572
STARLINK-3544           
1 51803U 22017AM  22064.91668981 -.00871800  00000+0 -62276-2 0  9991
2 51803  53.2175 102.6245 0001131  51.3006  18.2457 15.75489117  1795
STARLINK-3601           
1 51804U 22017AN  22065.16667824 -.00875060  00000+0 -62637-2 0  9998
2 51804  53.2177 101.3803 0001503  34.7589  24.0296 15.75448299  2623
STARLINK-3605           
1 51805U 22017AP  22064.91668981 -.00871757  00000+0 -62151-2 0  9996
2 51805  53.2175 102.6223 0001230  44.5124  26.1204 15.75532507  1798
STARLINK-3581           
1 51806U 22017AQ  22065.16667824 -.00875302  00000+0 -63425-2 0  9995
2 51806  53.2178 101.3760 0001331  40.9885  10.9514 15.75173235  2571
STARLINK-3606           
1 51807U 22017AR  22064.91668981 -.00871691  00000+0 -62026-2 0  9996
2 51807  53.2175 102.6201 0001206  45.4225  26.2911 15.75576385  1799
STARLINK-3609           
1 51808U 22017AS  22064.91668981 -.00871875  00000+0 -61742-2 0  9995
2 51808  53.2175 102.6147 0001073  58.7128  15.6848 15.75686672  1792
STARLINK-3607           
1 51809U 22017AT  22065.25001157 -.00872838  00000+0 -63791-2 0  9996
2 51809  53.2176 100.9652 0001448  47.9530 115.6584 15.74970376  2581
STARLINK-3613           
1 51810U 22017AU  22065.16667824 -.00875191  00000+0 -63168-2 0  9990
2 51810  53.2177 101.3715 0001517  33.5626  20.5978 15.75260484  2576
STARLINK-3569           
1 51811U 22017AV  22065.16667824 -.00875418  00000+0 -63375-2 0  9993
2 51811  53.2178 101.3748 0001217  49.3343   3.1608 15.75195498  2571
STARLINK-3610           
1 51812U 22017AW  22064.91668981 -.00871856  00000+0 -61565-2 0  9992
2 51812  53.2175 102.6115 0001024  65.1031  10.9001 15.75751432  1801
STARLINK-3552           
1 51813U 22017AX  22065.16667824 -.00875395  00000+0 -63254-2 0  9995
2 51813  53.2178 101.3725 0001131  57.2351 356.3707 15.75239030  2574
STARLINK-3599           
1 51814U 22017AY  22064.91668981 -.00871845  00000+0 -61442-2 0  9996
2 51814  53.2175 102.6093 0001085  56.1058  20.9579 15.75795747  1802
STARLINK-3604           
1 51815U 22017AZ  22065.16667824 -.00875182  00000+0 -63048-2 0  9992
2 51815  53.2178 101.3691 0001412  37.3833  17.8808 15.75304392  2579
STARLINK-3603           
1 51816U 22017BA  22064.91668981 -.00871825  00000+0 -61382-2 0  9999
2 51816  53.2175 102.6082 0001061  60.7914  16.8032 15.75817448  1797
STARLINK-3596           
1 51817U 22017BB  22065.50001157 -.00293015  00000+0 -10634-2 0  9995
2 51817  53.2175  99.3905 0006897 291.5897  25.8857 15.88397431  2627
FALCON 9 DEB            
1 51818U 22017BC  22065.12973567  .00219149  00000+0  72233-3 0  9995
2 51818  53.2298 101.2498 0006199 308.0158  52.0309 15.89335860  1344
FALCON 9 DEB            
1 51819U 22017BD  22065.12763401  .00245137  00000+0  78579-3 0  9995
2 51819  53.2288 101.2352 0003993 290.1936  69.8662 15.89838604  1349
FALCON 9 DEB            
1 51820U 22017BE  22065.12236482  .00247610  33730-4  77805-3 0  9991
2 51820  53.2260 101.1968 0008199 272.1488  87.8601 15.90930379  1345
FALCON 9 DEB            
1 51821U 22017BF  22065.12052682  .00241422  32694-4  74663-3 0  9992
2 51821  53.2241 101.1817 0007013 251.5349 108.4917 15.91262495  1347
L-SAR 01B               
1 51822U 22018A   22065.42476685  .00003782  00000+0  41364-3 0  9998
2 51822  97.8103  74.2662 0001623  95.8733 264.2734 14.88419412  1104
CZ-4C R/B               
1 51823U 22018B   22065.53902179  .00006606  00000+0  24455-3 0  9993
2 51823  97.8614  74.8418 0134297  15.3374 345.1868 15.19895224  1144
2022-019A               
1 51824U 22019A   22065.55403108  .00002827  00000+0  18429-3 0  9990
2 51824  97.5219 142.2045 0019567 243.1498 228.5395 15.08560875  1125
2022-019B               
1 51825U 22019B   22065.55277269  .00002412  00000+0  15685-3 0  9999
2 51825  97.5209 142.2024 0017476 239.9016 231.9095 15.08819709  1115
2022-019C               
1 51826U 22019C   22065.55189200  .00003161  00000+0  20327-3 0  9998
2 51826  97.5205 142.2026 0016794 241.3688 230.6122 15.09011202  1118
2022-019D               
1 51827U 22019D   22065.55173752  .00002450  00000+0  15820-3 0  9996
2 51827  97.5211 142.2054 0015599 240.3020 233.0757 15.09090279  1110
2022-019E               
1 51828U 22019E   22065.55175262  .00002785  00000+0  17913-3 0  9991
2 51828  97.5212 142.2055 0016378 242.8950 231.1478 15.09114418  1119
2022-019F               
1 51829U 22019F   22065.55043859  .00003846  00000+0  24540-3 0  9991
2 51829  97.5243 142.2092 0015725 243.0442 225.4445 15.09181705  1112
2022-019G               
1 51830U 22019G   22065.55108263  .00003993  00000+0  25457-3 0  9995
2 51830  97.5197 142.2007 0016426 241.8216 230.2234 15.09184924  1118
2022-019H               
1 51831U 22019H   22065.55082505  .00002790  00000+0  17884-3 0  9995
2 51831  97.5218 142.2016 0016841 250.8323 221.3092 15.09231356  1118
2022-019J               
1 51832U 22019J   22065.55076659  .00002528  00000+0  16235-3 0  9997
2 51832  97.5206 142.2038 0017162 249.1192 223.0776 15.09243407  1110
2022-019K               
1 51833U 22019K   22065.54952587  .00003594  00000+0  22732-3 0  9993
2 51833  97.5198 142.2047 0014848 245.6443 227.8666 15.09555005  1119
2022-019L               
1 51834U 22019L   22065.54930457  .00002815  00000+0  17891-3 0  9991
2 51834  97.5221 142.2147 0015420 248.9608 223.6637 15.09560512  1115
2022-019M               
1 51835U 22019M   22065.54930426  .00002900  00000+0  18417-3 0  9998
2 51835  97.5223 142.2039 0015402 249.3682 223.4072 15.09566742  1117
2022-019N               
1 51836U 22019N   22065.54972372  .00004140  00000+0  26083-3 0  9991
2 51836  97.5219 142.2096 0015266 249.2991 226.7592 15.09614259  1116
2022-019P               
1 51837U 22019P   22065.54822958  .00003955  00000+0  24827-3 0  9993
2 51837  97.5170 142.2022 0014611 250.5803 221.8035 15.09779461  1117
2022-019Q               
1 51838U 22019Q   22065.54802466  .00002900  00000+0  18293-3 0  9995
2 51838  97.5222 142.2127 0014267 249.2168 223.3997 15.09822347  1114
2022-019R               
1 51839U 22019R   22065.54797135  .00002856  00000+0  18018-3 0  9997
2 51839  97.5212 142.2063 0014229 248.8974 223.5677 15.09827179  1116
2022-019S               
1 51840U 22019S   22065.54785637  .00002835  00000+0  17880-3 0  9996
2 51840  97.5215 142.2069 0014230 246.9219 225.5487 15.09850949  1112
2022-019T               
1 51841U 22019T   22065.54776708  .00002884  00000+0  18152-3 0  9993
2 51841  97.5213 142.2114 0014012 246.1875 227.4797 15.09914658  1113
2022-019U               
1 51842U 22019U   22065.55453532  .00004722  00000+0  19585-3 0  9996
2 51842  97.5682 142.4131 0071225 187.2344 284.7847 15.22046555  1120
2022-019V               
1 51843U 22019V   22065.54720887  .00002335  00000+0  14739-3 0  9990
2 51843  97.5245 142.2149 0014390 253.8470 218.7495 15.09983880  1114
2022-019W               
1 51844U 22019W   22065.55160198  .00002705  00000+0  17416-3 0  9991
2 51844  97.5208 142.2080 0017352 251.1873 221.3158 15.09085835  1015
2022-019X               
1 51845U 22019X   22065.54799890  .00003562  00000+0  22458-3 0  9992
2 51845  97.5219 142.2101 0015120 248.6646 219.7909 15.09675880  1034
2022-019Y               
1 51846U 22019Y   22065.54857613  .00002895  00000+0  18307-3 0  9997
2 51846  97.5200 142.2134 0015020 246.2020 226.6961 15.09720227  1031
STRIX-BETA              
1 51847U 22020A   22065.22103438  .00002067  00000+0  16658-3 0  9992
2 51847  97.7758 118.9955 0012981 274.6532  85.3215 15.00994868   800
ELECTRON KICK STAGE R/B 
1 51848U 22020B   22064.70448237  .00004604  00000+0  22708-3 0  9996
2 51848  97.0923 117.3771 0060635  14.5258 345.7700 15.16742552   734
ELECTRON R/B            
1 51849U 20020C   22064.62869078  .01288007  23223-5  10859-2 0  9999
2 51849  97.7267 118.7273 0275488 206.0334 152.6879 15.67717911   731
2022-021A               
1 51850U 22021A   22062.85766450 -.00000173  00000+0  00000+0 0  9999
2 51850   9.3793 334.3380 4623162 179.9499 197.2837  1.80588480    41
2022-021B               
1 51851U 22022B   22061.16528521 -.00000182  00000+0  00000+0 0  9999
2 51851   9.3750 334.5324 4632108 179.5801 175.9040  1.80759695    01
2022-023A               
1 51946U 22023A   22065.56185279  .00012011  00000+0  47397-3 0  9999
2 51946  63.4531 191.1233 0017225 308.7146 180.9261 15.25778071   207
2022-023B               
1 51947U 22023B   22065.56191959  .00014906  00000+0  58697-3 0  9992
2 51947  63.4510 191.1239 0017492 306.7306 182.9243 15.25704516   208
